QIANFAN-65              
1 62795U 25016L   25202.89653716  .00000117  00000+0  16260-3 0  9995
2 62795  88.9843 117.9125 0015942  43.9534 316.2882 13.50957313 27822
QIANFAN-66              
1 62796U 25016M   25202.92520598  .00000110  00000+0  15147-3 0  9997
2 62796  88.9862 117.8515 0016970  39.6321 320.6067 13.50959580 27871
QIANFAN-67              
1 62797U 25016N   25202.85541111  .00000115  00000+0  15980-3 0  9994
2 62797  88.9852 117.8983 0017092  45.9102 314.3453 13.50961098 27835
QIANFAN-68              
1 62798U 25016P   25202.85944086  .00000121  00000+0  16840-3 0  9996
2 62798  88.9856 117.9409 0017684  44.2186 316.0375 13.50958508 27817
QIANFAN-69              
1 62799U 25016Q   25202.86349117  .00000119  00000+0  16553-3 0  9990
2 62799  88.9835 117.8379 0017871  45.1063 315.1535 13.50959414 27851
QIANFAN-70              
1 62800U 25016R   25202.95409596  .00000117  00000+0  16205-3 0  9993
2 62800  88.9856 117.9365 0017238  36.4156 323.8164 13.50957951 27821
QIANFAN-71              
1 62801U 25016S   25202.95006133  .00000118  00000+0  16456-3 0  9993
2 62801  88.9850 117.9252 0017849  47.9993 312.2675 13.50957827 27826
QIANFAN-72              
1 62802U 25016T   25202.87173617  .00000126  00000+0  17548-3 0  9999
2 62802  88.9840 117.9559 0021361  53.4326 306.8787 13.50959449 27805
